{
  "type": "FeatureCollection",
  "features": [
    {
      "type": "Feature",
      "properties": {
        "norad_id": 66618,
        "name": "STARLINK-35970",
        "group": "last-30-days",
        "lat": 5.772669110515509,
        "lon": -23.778593624082138,
        "alt_km": 418.85333014619937,
        "timestamp": "2025-12-18T07:01:53.340535+00:00",
        "meta_object_name": "STARLINK-35970",
        "meta_object_id": "2025-271B",
        "meta_epoch": "2025-12-17T21:00:01.739232",
        "meta_mean_motion": 15.49336167,
        "meta_eccentricity": 7.386e-05,
        "meta_inclination": 53.1596,
        "meta_ra_of_asc_node": 162.5674,
        "meta_arg_of_pericenter": 60.7418,
        "meta_mean_anomaly": 299.3664,
        "meta_ephemeris_type": 0,
        "meta_classification_type": "U",
        "meta_norad_cat_id": 66618,
        "meta_element_set_no": 999,
        "meta_rev_at_epoch": 500,
        "meta_bstar": 0.00080768824,
        "meta_mean_motion_dot": 0.00044773,
        "meta_mean_motion_ddot": 0,
        "tle_line1": "1 66618U 25271B   25351.87502013  .00044773  00000+0  80769-3 0  9993",
        "tle_line2": "2 66618  53.1596 162.5674 0000738  60.7418 299.3664 15.49336167  5002"
      },
      "geometry": {
        "type": "Point",
        "coordinates": [
          -23.778593624082138,
          5.772669110515509
        ]
      }
    },
    {
      "type": "Feature",
      "properties": {
        "norad_id": 66619,
        "name": "STARLINK-35951",
        "group": "last-30-days",
        "lat": 39.61178969670802,
        "lon": -57.687481774620316,
        "alt_km": 413.5634424461505,
        "timestamp": "2025-12-18T07:01:53.340545+00:00",
        "meta_object_name": "STARLINK-35951",
        "meta_object_id": "2025-271C",
        "meta_epoch": "2025-12-17T21:11:47.191776",
        "meta_mean_motion": 15.49332119,
        "meta_eccentricity": 9.926e-05,
        "meta_inclination": 53.1593,
        "meta_ra_of_asc_node": 162.6252,
        "meta_arg_of_pericenter": 19.2229,
        "meta_mean_anomaly": 340.8817,
        "meta_ephemeris_type": 0,
        "meta_classification_type": "U",
        "meta_norad_cat_id": 66619,
        "meta_element_set_no": 999,
        "meta_rev_at_epoch": 500,
        "meta_bstar": 0.00097254841,
        "meta_mean_motion_dot": 0.0005406,
        "meta_mean_motion_ddot": 0,
        "tle_line1": "1 66619U 25271C   25351.88318509  .00054060  00000+0  97255-3 0  9998",
        "tle_line2": "2 66619  53.1593 162.6252 0000992  19.2229 340.8817 15.49332119  5009"
      },
      "geometry": {
        "type": "Point",
        "coordinates": [
          -57.687481774620316,
          39.61178969670802
        ]
      }
    },
    {
      "type": "Feature",
      "properties": {
        "norad_id": 66620,
        "name": "STARLINK-35936",
        "group": "last-30-days",
        "lat": 43.059746802392,
        "lon": -63.797483693978556,
        "alt_km": 412.34154011479313,
        "timestamp": "2025-12-18T07:01:53.340555+00:00",
        "meta_object_name": "STARLINK-35936",
        "meta_object_id": "2025-271D",
        "meta_epoch": "2025-12-17T21:13:16.233024",
        "meta_mean_motion": 15.49335274,
        "meta_eccentricity": 9.335e-05,
        "meta_inclination": 53.1598,
        "meta_ra_of_asc_node": 162.6324,
        "meta_arg_of_pericenter": 77.1817,
        "meta_mean_anomaly": 282.9297,
        "meta_ephemeris_type": 0,
        "meta_classification_type": "U",
        "meta_norad_cat_id": 66620,
        "meta_element_set_no": 999,
        "meta_rev_at_epoch": 500,
        "meta_bstar": 0.0012164086,
        "meta_mean_motion_dot": 0.00067856,
        "meta_mean_motion_ddot": 0,
        "tle_line1": "1 66620U 25271D   25351.88421566  .00067856  00000+0  12164-2 0  9990",
        "tle_line2": "2 66620  53.1598 162.6324 0000933  77.1817 282.9297 15.49335274  5000"
      },
      "geometry": {
        "type": "Point",
        "coordinates": [
          -63.797483693978556,
          43.059746802392
        ]
      }
    },
    {
      "type": "Feature",
      "properties": {
        "norad_id": 66621,
        "name": "STARLINK-35847",
        "group": "last-30-days",
        "lat": 2.879511411457798,
        "lon": -21.600943621698125,
        "alt_km": 419.2019857450796,
        "timestamp": "2025-12-18T07:01:53.340565+00:00",
        "meta_object_name": "STARLINK-35847",
        "meta_object_id": "2025-271E",
        "meta_epoch": "2025-12-17T20:59:05.575776",
        "meta_mean_motion": 15.49333486,
        "meta_eccentricity": 9.49e-05,
        "meta_inclination": 53.1596,
        "meta_ra_of_asc_node": 162.5625,
        "meta_arg_of_pericenter": 77.8686,
        "meta_mean_anomaly": 282.2429,
        "meta_ephemeris_type": 0,
        "meta_classification_type": "U",
        "meta_norad_cat_id": 66621,
        "meta_element_set_no": 999,
        "meta_rev_at_epoch": 500,
        "meta_bstar": 0.00054976508,
        "meta_mean_motion_dot": 0.00030272,
        "meta_mean_motion_ddot": 0,
        "tle_line1": "1 66621U 25271E   25351.87437009  .00030272  00000+0  54977-3 0  9990",
        "tle_line2": "2 66621  53.1596 162.5625 0000949  77.8686 282.2429 15.49333486  5003"
      },
      "geometry": {
        "type": "Point",
        "coordinates": [
          -21.600943621698125,
          2.879511411457798
        ]
      }
    },
    {
      "type": "Feature",
      "properties": {
        "norad_id": 66622,
        "name": "STARLINK-35950",
        "group": "last-30-days",
        "lat": 51.14340298983629,
        "lon": -87.81290904884999,
        "alt_km": 434.55899770906944,
        "timestamp": "2025-12-18T07:01:53.340577+00:00",
        "meta_object_name": "STARLINK-35950",
        "meta_object_id": "2025-271F",
        "meta_epoch": "2025-12-17T22:00:01.999584",
        "meta_mean_motion": 15.42875774,
        "meta_eccentricity": 0.00013281,
        "meta_inclination": 53.1597,
        "meta_ra_of_asc_node": 162.4938,
        "meta_arg_of_pericenter": 46.4528,
        "meta_mean_anomaly": 126.5669,
        "meta_ephemeris_type": 0,
        "meta_classification_type": "U",
        "meta_norad_cat_id": 66622,
        "meta_element_set_no": 999,
        "meta_rev_at_epoch": 507,
        "meta_bstar": -0.044631081,
        "meta_mean_motion_dot": -0.01795417,
        "meta_mean_motion_ddot": 0,
        "tle_line1": "1 66622U 25271F   25351.91668981 -.01795417  00000+0 -44631-1 0  9997",
        "tle_line2": "2 66622  53.1597 162.4938 0001328  46.4528 126.5669 15.42875774  5077"
      },
      "geometry": {
        "type": "Point",
        "coordinates": [
          -87.81290904884999,
          51.14340298983629
        ]
      }
    },
    {
      "type": "Feature",
      "properties": {
        "norad_id": 66623,
        "name": "STARLINK-35920",
        "group": "last-30-days",
        "lat": 39.533211578526085,
        "lon": -160.96224861612694,
        "alt_km": 441.5833325522508,
        "timestamp": "2025-12-18T07:01:53.340588+00:00",
        "meta_object_name": "STARLINK-35920",
        "meta_object_id": "2025-271G",
        "meta_epoch": "2025-12-17T22:00:01.999584",
        "meta_mean_motion": 15.39577186,
        "meta_eccentricity": 8.498e-05,
        "meta_inclination": 53.1594,
        "meta_ra_of_asc_node": 162.5855,
        "meta_arg_of_pericenter": 91.6118,
        "meta_mean_anomaly": 34.3727,
        "meta_ephemeris_type": 0,
        "meta_classification_type": "U",
        "meta_norad_cat_id": 66623,
        "meta_element_set_no": 999,
        "meta_rev_at_epoch": 507,
        "meta_bstar": 0.001866287,
        "meta_mean_motion_dot": 0.00074881,
        "meta_mean_motion_ddot": 0,
        "tle_line1": "1 66623U 25271G   25351.91668981  .00074881  00000+0  18663-2 0  9997",
        "tle_line2": "2 66623  53.1594 162.5855 0000849  91.6118  34.3727 15.39577186  5071"
      },
      "geometry": {
        "type": "Point",
        "coordinates": [
          -160.96224861612694,
          39.533211578526085
        ]
      }
    },
    {
      "type": "Feature",
      "properties": {
        "norad_id": 66624,
        "name": "STARLINK-35927",
        "group": "last-30-days",
        "lat": 37.13687238224128,
        "lon": -53.93856757370536,
        "alt_km": 413.3042960421999,
        "timestamp": "2025-12-18T07:01:53.340598+00:00",
        "meta_object_name": "STARLINK-35927",
        "meta_object_id": "2025-271H",
        "meta_epoch": "2025-12-17T21:10:47.846208",
        "meta_mean_motion": 15.4933268,
        "meta_eccentricity": 9.578e-05,
        "meta_inclination": 53.1595,
        "meta_ra_of_asc_node": 162.6203,
        "meta_arg_of_pericenter": 83.2782,
        "meta_mean_anomaly": 276.8336,
        "meta_ephemeris_type": 0,
        "meta_classification_type": "U",
        "meta_norad_cat_id": 66624,
        "meta_element_set_no": 999,
        "meta_rev_at_epoch": 500,
        "meta_bstar": 0.0010605619,
        "meta_mean_motion_dot": 0.00059032,
        "meta_mean_motion_ddot": 0,
        "tle_line1": "1 66624U 25271H   25351.88249822  .00059032  00000+0  10606-2 0  9993",
        "tle_line2": "2 66624  53.1595 162.6203 0000957  83.2782 276.8336 15.49332680  5006"
      },
      "geometry": {
        "type": "Point",
        "coordinates": [
          -53.93856757370536,
          37.13687238224128
        ]
      }
    }
  ]
}